[
  {
    "OBJECT_NAME": "STARLINK-32559",
    "OBJECT_ID": "24207D",
    "EPOCH": "2025-11-11T03:16:37.406784",
    "MEAN_MOTION": 15.2762642,
    "ECCENTRICITY": 0.0001002,
    "INCLINATION": 42.9972,
    "RA_OF_ASC_NODE": 231.0334,
    "ARG_OF_PERICENTER": 244.54,
    "MEAN_ANOMALY": 115.5348,
    "EPHEMERIS_TYPE": 0,
    "CLASSIFICATION_TYPE": "U",
    "NORAD_CAT_ID": 61915,
    "ELEMENT_SET_NO": 999,
    "REV_AT_EPOCH": 5659,
    "BSTAR": 0.0010328,
    "MEAN_MOTION_DOT": 0.00028309,
    "MEAN_MOTION_DDOT": 0.0,
    "TLE_LINE1": "1 61915U 24207D   25315.13654406  .00028309  00000+0  10328-2 0  9999",
    "TLE_LINE2": "2 61915  42.9972 231.0334 0001002 244.5400 115.5348 15.27626420 56592",
    "COMMENT": "Grouped by shell and plane from TLE"
  },
  {
    "OBJECT_NAME": "STARLINK-32541",
    "OBJECT_ID": "24207E",
    "EPOCH": "2025-11-11T04:11:25.924704",
    "MEAN_MOTION": 15.27639701,
    "ECCENTRICITY": 0.0001505,
    "INCLINATION": 43.0007,
    "RA_OF_ASC_NODE": 234.7848,
    "ARG_OF_PERICENTER": 262.6911,
    "MEAN_ANOMALY": 97.377,
    "EPHEMERIS_TYPE": 0,
    "CLASSIFICATION_TYPE": "U",
    "NORAD_CAT_ID": 61916,
    "ELEMENT_SET_NO": 999,
    "REV_AT_EPOCH": 5655,
    "BSTAR": 0.0013411999999999999,
    "MEAN_MOTION_DOT": 0.00036896,
    "MEAN_MOTION_DDOT": 0.0,
    "TLE_LINE1": "1 61916U 24207E   25315.17460561  .00036896  00000+0  13412-2 0  9998",
    "TLE_LINE2": "2 61916  43.0007 234.7848 0001505 262.6911  97.3770 15.27639701 56558",
    "COMMENT": "Grouped by shell and plane from TLE"
  },
  {
    "OBJECT_NAME": "STARLINK-32544",
    "OBJECT_ID": "24207F",
    "EPOCH": "2025-11-11T03:27:43.403040",
    "MEAN_MOTION": 15.27633032,
    "ECCENTRICITY": 0.0001113,
    "INCLINATION": 43.0009,
    "RA_OF_ASC_NODE": 231.092,
    "ARG_OF_PERICENTER": 250.3417,
    "MEAN_ANOMALY": 109.7315,
    "EPHEMERIS_TYPE": 0,
    "CLASSIFICATION_TYPE": "U",
    "NORAD_CAT_ID": 61917,
    "ELEMENT_SET_NO": 999,
    "REV_AT_EPOCH": 5659,
    "BSTAR": 0.0011705,
    "MEAN_MOTION_DOT": 0.0003214,
    "MEAN_MOTION_DDOT": 0.0,
    "TLE_LINE1": "1 61917U 24207F   25315.14425235  .00032140  00000+0  11705-2 0  9996",
    "TLE_LINE2": "2 61917  43.0009 231.0920 0001113 250.3417 109.7315 15.27633032 56590",
    "COMMENT": "Grouped by shell and plane from TLE"
  },
  {
    "OBJECT_NAME": "STARLINK-32555",
    "OBJECT_ID": "24207G",
    "EPOCH": "2025-11-11T02:53:56.877216",
    "MEAN_MOTION": 15.27551542,
    "ECCENTRICITY": 0.0001853,
    "INCLINATION": 43.001,
    "RA_OF_ASC_NODE": 235.2404,
    "ARG_OF_PERICENTER": 262.3406,
    "MEAN_ANOMALY": 97.7236,
    "EPHEMERIS_TYPE": 0,
    "CLASSIFICATION_TYPE": "U",
    "NORAD_CAT_ID": 61918,
    "ELEMENT_SET_NO": 999,
    "REV_AT_EPOCH": 5654,
    "BSTAR": 0.0013571,
    "MEAN_MOTION_DOT": 0.00037239,
    "MEAN_MOTION_DDOT": 0.0,
    "TLE_LINE1": "1 61918U 24207G   25315.12079719  .00037239  00000+0  13571-2 0  9994",
    "TLE_LINE2": "2 61918  43.0010 235.2404 0001853 262.3406  97.7236 15.27551542 56546",
    "COMMENT": "Grouped by shell and plane from TLE"
  },
  {
    "OBJECT_NAME": "STARLINK-32547",
    "OBJECT_ID": "24207H",
    "EPOCH": "2025-11-11T04:32:16.323648",
    "MEAN_MOTION": 15.2763945,
    "ECCENTRICITY": 9.15e-05,
    "INCLINATION": 42.998,
    "RA_OF_ASC_NODE": 230.5645,
    "ARG_OF_PERICENTER": 280.7996,
    "MEAN_ANOMALY": 79.2752,
    "EPHEMERIS_TYPE": 0,
    "CLASSIFICATION_TYPE": "U",
    "NORAD_CAT_ID": 61919,
    "ELEMENT_SET_NO": 999,
    "REV_AT_EPOCH": 5659,
    "BSTAR": 0.0014898000000000001,
    "MEAN_MOTION_DOT": 0.00041036,
    "MEAN_MOTION_DDOT": 0.0,
    "TLE_LINE1": "1 61919U 24207H   25315.18907782  .00041036  00000+0  14898-2 0  9994",
    "TLE_LINE2": "2 61919  42.9980 230.5645 0000915 280.7996  79.2752 15.27639450 56590",
    "COMMENT": "Grouped by shell and plane from TLE"
  },
  {
    "OBJECT_NAME": "STARLINK-32616",
    "OBJECT_ID": "24207J",
    "EPOCH": "2025-11-11T03:48:04.562496",
    "MEAN_MOTION": 15.27622613,
    "ECCENTRICITY": 0.0001489,
    "INCLINATION": 42.9993,
    "RA_OF_ASC_NODE": 231.201,
    "ARG_OF_PERICENTER": 279.1651,
    "MEAN_ANOMALY": 80.9032,
    "EPHEMERIS_TYPE": 0,
    "CLASSIFICATION_TYPE": "U",
    "NORAD_CAT_ID": 61920,
    "ELEMENT_SET_NO": 999,
    "REV_AT_EPOCH": 5659,
    "BSTAR": 0.0010079000000000002,
    "MEAN_MOTION_DOT": 0.00027613,
    "MEAN_MOTION_DDOT": 0.0,
    "TLE_LINE1": "1 61920U 24207J   25315.15838614  .00027613  00000+0  10079-2 0  9992",
    "TLE_LINE2": "2 61920  42.9993 231.2010 0001489 279.1651  80.9032 15.27622613 56590",
    "COMMENT": "Grouped by shell and plane from TLE"
  },
  {
    "OBJECT_NAME": "STARLINK-32605",
    "OBJECT_ID": "24207K",
    "EPOCH": "2025-11-11T03:22:10.648992",
    "MEAN_MOTION": 15.27615728,
    "ECCENTRICITY": 6.59e-05,
    "INCLINATION": 42.9966,
    "RA_OF_ASC_NODE": 231.0575,
    "ARG_OF_PERICENTER": 190.1503,
    "MEAN_ANOMALY": 169.9335,
    "EPHEMERIS_TYPE": 0,
    "CLASSIFICATION_TYPE": "U",
    "NORAD_CAT_ID": 61921,
    "ELEMENT_SET_NO": 999,
    "REV_AT_EPOCH": 5659,
    "BSTAR": 0.00049042,
    "MEAN_MOTION_DOT": 0.00013272,
    "MEAN_MOTION_DDOT": 0.0,
    "TLE_LINE1": "1 61921U 24207K   25315.14040103  .00013272  00000+0  49042-3 0  9999",
    "TLE_LINE2": "2 61921  42.9966 231.0575 0000659 190.1503 169.9335 15.27615728 56594",
    "COMMENT": "Grouped by shell and plane from TLE"
  },
  {
    "OBJECT_NAME": "STARLINK-32579",
    "OBJECT_ID": "24207L",
    "EPOCH": "2025-11-11T04:05:52.734336",
    "MEAN_MOTION": 15.27605407,
    "ECCENTRICITY": 0.0001993,
    "INCLINATION": 43.0006,
    "RA_OF_ASC_NODE": 234.7554,
    "ARG_OF_PERICENTER": 269.6339,
    "MEAN_ANOMALY": 90.4284,
    "EPHEMERIS_TYPE": 0,
    "CLASSIFICATION_TYPE": "U",
    "NORAD_CAT_ID": 61922,
    "ELEMENT_SET_NO": 999,
    "REV_AT_EPOCH": 5655,
    "BSTAR": 0.0014018,
    "MEAN_MOTION_DOT": 0.00038545,
    "MEAN_MOTION_DDOT": 0.0,
    "TLE_LINE1": "1 61922U 24207L   25315.17074924  .00038545  00000+0  14018-2 0  9995",
    "TLE_LINE2": "2 61922  43.0006 234.7554 0001993 269.6339  90.4284 15.27605407 56550",
    "COMMENT": "Grouped by shell and plane from TLE"
  },
  {
    "OBJECT_NAME": "STARLINK-32537",
    "OBJECT_ID": "24207M",
    "EPOCH": "2025-11-11T04:31:47.052192",
    "MEAN_MOTION": 15.27656467,
    "ECCENTRICITY": 0.0001544,
    "INCLINATION": 43.0018,
    "RA_OF_ASC_NODE": 234.8877,
    "ARG_OF_PERICENTER": 259.629,
    "MEAN_ANOMALY": 100.4388,
    "EPHEMERIS_TYPE": 0,
    "CLASSIFICATION_TYPE": "U",
    "NORAD_CAT_ID": 61923,
    "ELEMENT_SET_NO": 999,
    "REV_AT_EPOCH": 5655,
    "BSTAR": 0.0022522,
    "MEAN_MOTION_DOT": 0.00062385,
    "MEAN_MOTION_DDOT": 0.0,
    "TLE_LINE1": "1 61923U 24207M   25315.18873903  .00062385  00000+0  22522-2 0  9999",
    "TLE_LINE2": "2 61923  43.0018 234.8877 0001544 259.6290 100.4388 15.27656467 56559",
    "COMMENT": "Grouped by shell and plane from TLE"
  },
  {
    "OBJECT_NAME": "STARLINK-32564",
    "OBJECT_ID": "24207N",
    "EPOCH": "2025-11-11T04:22:32.808288",
    "MEAN_MOTION": 15.27607809,
    "ECCENTRICITY": 0.0001632,
    "INCLINATION": 43.0011,
    "RA_OF_ASC_NODE": 234.8424,
    "ARG_OF_PERICENTER": 253.0893,
    "MEAN_ANOMALY": 106.978,
    "EPHEMERIS_TYPE": 0,
    "CLASSIFICATION_TYPE": "U",
    "NORAD_CAT_ID": 61924,
    "ELEMENT_SET_NO": 999,
    "REV_AT_EPOCH": 5655,
    "BSTAR": 0.0015842,
    "MEAN_MOTION_DOT": 0.00043628,
    "MEAN_MOTION_DDOT": 0.0,
    "TLE_LINE1": "1 61924U 24207N   25315.18232417  .00043628  00000+0  15842-2 0  9995",
    "TLE_LINE2": "2 61924  43.0011 234.8424 0001632 253.0893 106.9780 15.27607809 56559",
    "COMMENT": "Grouped by shell and plane from TLE"
  },
  {
    "OBJECT_NAME": "STARLINK-32536",
    "OBJECT_ID": "24207P",
    "EPOCH": "2025-11-11T03:03:12.439584",
    "MEAN_MOTION": 15.27582915,
    "ECCENTRICITY": 0.000167,
    "INCLINATION": 43.001,
    "RA_OF_ASC_NODE": 235.2836,
    "ARG_OF_PERICENTER": 278.9313,
    "MEAN_ANOMALY": 81.1349,
    "EPHEMERIS_TYPE": 0,
    "CLASSIFICATION_TYPE": "U",
    "NORAD_CAT_ID": 61925,
    "ELEMENT_SET_NO": 999,
    "REV_AT_EPOCH": 5654,
    "BSTAR": 0.0014251,
    "MEAN_MOTION_DOT": 0.00039167,
    "MEAN_MOTION_DDOT": 0.0,
    "TLE_LINE1": "1 61925U 24207P   25315.12722731  .00039167  00000+0  14251-2 0  9999",
    "TLE_LINE2": "2 61925  43.0010 235.2836 0001670 278.9313  81.1349 15.27582915 56540",
    "COMMENT": "Grouped by shell and plane from TLE"
  },
  {
    "OBJECT_NAME": "STARLINK-32624",
    "OBJECT_ID": "24207Q",
    "EPOCH": "2025-11-11T04:23:01.067136",
    "MEAN_MOTION": 15.27643909,
    "ECCENTRICITY": 0.0001235,
    "INCLINATION": 42.9997,
    "RA_OF_ASC_NODE": 230.5181,
    "ARG_OF_PERICENTER": 272.5076,
    "MEAN_ANOMALY": 87.5634,
    "EPHEMERIS_TYPE": 0,
    "CLASSIFICATION_TYPE": "U",
    "NORAD_CAT_ID": 61926,
    "ELEMENT_SET_NO": 999,
    "REV_AT_EPOCH": 5660,
    "BSTAR": 0.0014721,
    "MEAN_MOTION_DOT": 0.0004055,
    "MEAN_MOTION_DDOT": 0.0,
    "TLE_LINE1": "1 61926U 24207Q   25315.18265124  .00040550  00000+0  14721-2 0  9994",
    "TLE_LINE2": "2 61926  42.9997 230.5181 0001235 272.5076  87.5634 15.27643909 56602",
    "COMMENT": "Grouped by shell and plane from TLE"
  },
  {
    "OBJECT_NAME": "STARLINK-32622",
    "OBJECT_ID": "24207R",
    "EPOCH": "2025-11-11T04:34:07.256928",
    "MEAN_MOTION": 15.27640446,
    "ECCENTRICITY": 0.0001206,
    "INCLINATION": 42.9986,
    "RA_OF_ASC_NODE": 230.5725,
    "ARG_OF_PERICENTER": 267.0599,
    "MEAN_ANOMALY": 93.0115,
    "EPHEMERIS_TYPE": 0,
    "CLASSIFICATION_TYPE": "U",
    "NORAD_CAT_ID": 61927,
    "ELEMENT_SET_NO": 999,
    "REV_AT_EPOCH": 5660,
    "BSTAR": 0.0016693,
    "MEAN_MOTION_DOT": 0.00046045,
    "MEAN_MOTION_DDOT": 0.0,
    "TLE_LINE1": "1 61927U 24207R   25315.19036177  .00046045  00000+0  16693-2 0  9995",
    "TLE_LINE2": "2 61927  42.9986 230.5725 0001206 267.0599  93.0115 15.27640446 56601",
    "COMMENT": "Grouped by shell and plane from TLE"
  }
]